{
  "type": "FeatureCollection",
  "features": [
    {
      "type": "Feature",
      "properties": {
        "norad_id": 37967,
        "name": "COSMOS 2251 DEB",
        "group": "cosmos-2251-debris",
        "lat": -70.70346905689412,
        "lon": -10.974927286438655,
        "alt_km": 656.7443702018609,
        "timestamp": "2025-12-25T07:41:10.121208+00:00",
        "meta_object_name": "COSMOS 2251 DEB",
        "meta_object_id": "1993-036BPS",
        "meta_epoch": "2025-12-23T17:48:57.484800",
        "meta_mean_motion": 14.40634193,
        "meta_eccentricity": 0.01510703,
        "meta_inclination": 74.0162,
        "meta_ra_of_asc_node": 116.9992,
        "meta_arg_of_pericenter": 253.4566,
        "meta_mean_anomaly": 104.995,
        "meta_ephemeris_type": 0,
        "meta_classification_type": "U",
        "meta_norad_cat_id": 37967,
        "meta_element_set_no": 999,
        "meta_rev_at_epoch": 64894,
        "meta_bstar": 0.0018561485,
        "meta_mean_motion_dot": 6.756e-05,
        "meta_mean_motion_ddot": 0,
        "tle_line1": "1 37967U 93036BPS 25357.74233200  .00006756  00000+0  18561-2 0  9992",
        "tle_line2": "2 37967  74.0162 116.9992 0151070 253.4566 104.9950 14.40634193648940"
      },
      "geometry": {
        "type": "Point",
        "coordinates": [
          -10.974927286438655,
          -70.70346905689412
        ]
      }
    },
    {
      "type": "Feature",
      "properties": {
        "norad_id": 37968,
        "name": "COSMOS 2251 DEB",
        "group": "cosmos-2251-debris",
        "lat": -66.35181041413222,
        "lon": 106.44380880183215,
        "alt_km": 585.7072970614208,
        "timestamp": "2025-12-25T07:41:10.121218+00:00",
        "meta_object_name": "COSMOS 2251 DEB",
        "meta_object_id": "1993-036BPT",
        "meta_epoch": "2025-12-21T00:10:33.901248",
        "meta_mean_motion": 15.00806785,
        "meta_eccentricity": 0.00805513,
        "meta_inclination": 74.0006,
        "meta_ra_of_asc_node": 254.2977,
        "meta_arg_of_pericenter": 7.8808,
        "meta_mean_anomaly": 352.3622,
        "meta_ephemeris_type": 0,
        "meta_classification_type": "U",
        "meta_norad_cat_id": 37968,
        "meta_element_set_no": 999,
        "meta_rev_at_epoch": 60343,
        "meta_bstar": 0.00064941669,
        "meta_mean_motion_dot": 8.807e-05,
        "meta_mean_motion_ddot": 0,
        "tle_line1": "1 37968U 93036BPT 25355.00733682  .00008807  00000+0  64942-3 0  9993",
        "tle_line2": "2 37968  74.0006 254.2977 0080551   7.8808 352.3622 15.00806785603437"
      },
      "geometry": {
        "type": "Point",
        "coordinates": [
          106.44380880183215,
          -66.35181041413222
        ]
      }
    },
    {
      "type": "Feature",
      "properties": {
        "norad_id": 37971,
        "name": "COSMOS 2251 DEB",
        "group": "cosmos-2251-debris",
        "lat": -22.636995039014035,
        "lon": 11.227135474845307,
        "alt_km": 781.4729071394604,
        "timestamp": "2025-12-25T07:41:10.121227+00:00",
        "meta_object_name": "COSMOS 2251 DEB",
        "meta_object_id": "1993-036BPW",
        "meta_epoch": "2025-12-21T19:16:34.897152",
        "meta_mean_motion": 14.48757325,
        "meta_eccentricity": 0.00659406,
        "meta_inclination": 73.9924,
        "meta_ra_of_asc_node": 24.7096,
        "meta_arg_of_pericenter": 161.9609,
        "meta_mean_anomaly": 198.3914,
        "meta_ephemeris_type": 0,
        "meta_classification_type": "U",
        "meta_norad_cat_id": 37971,
        "meta_element_set_no": 999,
        "meta_rev_at_epoch": 60809,
        "meta_bstar": 0.0013046337,
        "meta_mean_motion_dot": 5.035e-05,
        "meta_mean_motion_ddot": 0,
        "tle_line1": "1 37971U 93036BPW 25355.80318168  .00005035  00000+0  13046-2 0  9991",
        "tle_line2": "2 37971  73.9924  24.7096 0065940 161.9609 198.3914 14.48757325608091"
      },
      "geometry": {
        "type": "Point",
        "coordinates": [
          11.227135474845307,
          -22.636995039014035
        ]
      }
    },
    {
      "type": "Feature",
      "properties": {
        "norad_id": 37975,
        "name": "COSMOS 2251 DEB",
        "group": "cosmos-2251-debris",
        "lat": 34.327482610476146,
        "lon": -49.32892925197078,
        "alt_km": 659.2347495251606,
        "timestamp": "2025-12-25T07:41:10.121238+00:00",
        "meta_object_name": "COSMOS 2251 DEB",
        "meta_object_id": "1993-036BQA",
        "meta_epoch": "2025-12-24T13:38:18.210912",
        "meta_mean_motion": 14.76642504,
        "meta_eccentricity": 0.00942439,
        "meta_inclination": 74.0025,
        "meta_ra_of_asc_node": 300.8495,
        "meta_arg_of_pericenter": 287.7537,
        "meta_mean_anomaly": 71.3369,
        "meta_ephemeris_type": 0,
        "meta_classification_type": "U",
        "meta_norad_cat_id": 37975,
        "meta_element_set_no": 999,
        "meta_rev_at_epoch": 69920,
        "meta_bstar": 0.0036103843,
        "meta_mean_motion_dot": 0.00027223,
        "meta_mean_motion_ddot": 0,
        "tle_line1": "1 37975U 93036BQA 25358.56826633  .00027223  00000+0  36104-2 0  9995",
        "tle_line2": "2 37975  74.0025 300.8495 0094243 287.7537  71.3369 14.76642504699205"
      },
      "geometry": {
        "type": "Point",
        "coordinates": [
          -49.32892925197078,
          34.327482610476146
        ]
      }
    },
    {
      "type": "Feature",
      "properties": {
        "norad_id": 37985,
        "name": "COSMOS 2251 DEB",
        "group": "cosmos-2251-debris",
        "lat": 49.393891788356385,
        "lon": -97.8307625372877,
        "alt_km": 758.8801857869039,
        "timestamp": "2025-12-25T07:41:10.121248+00:00",
        "meta_object_name": "COSMOS 2251 DEB",
        "meta_object_id": "1993-036BQL",
        "meta_epoch": "2025-12-21T23:09:40.593024",
        "meta_mean_motion": 14.35485723,
        "meta_eccentricity": 0.00211869,
        "meta_inclination": 74.025,
        "meta_ra_of_asc_node": 248.8047,
        "meta_arg_of_pericenter": 9.0301,
        "meta_mean_anomaly": 351.1228,
        "meta_ephemeris_type": 0,
        "meta_classification_type": "U",
        "meta_norad_cat_id": 37985,
        "meta_element_set_no": 999,
        "meta_rev_at_epoch": 65049,
        "meta_bstar": 5.1256722e-05,
        "meta_mean_motion_dot": 1.21e-06,
        "meta_mean_motion_ddot": 0,
        "tle_line1": "1 37985U 93036BQL 25355.96505316  .00000121  00000+0  51257-4 0  9995",
        "tle_line2": "2 37985  74.0250 248.8047 0021186   9.0301 351.1228 14.35485723650494"
      },
      "geometry": {
        "type": "Point",
        "coordinates": [
          -97.8307625372877,
          49.393891788356385
        ]
      }
    },
    {
      "type": "Feature",
      "properties": {
        "norad_id": 37988,
        "name": "COSMOS 2251 DEB",
        "group": "cosmos-2251-debris",
        "lat": 50.216991140858454,
        "lon": 159.6440900626592,
        "alt_km": 661.6220364621522,
        "timestamp": "2025-12-25T07:41:10.121258+00:00",
        "meta_object_name": "COSMOS 2251 DEB",
        "meta_object_id": "1993-036BQP",
        "meta_epoch": "2025-12-19T02:22:34.688640",
        "meta_mean_motion": 14.6891967,
        "meta_eccentricity": 0.00635463,
        "meta_inclination": 74.062,
        "meta_ra_of_asc_node": 11.7337,
        "meta_arg_of_pericenter": 47.3595,
        "meta_mean_anomaly": 313.2907,
        "meta_ephemeris_type": 0,
        "meta_classification_type": "U",
        "meta_norad_cat_id": 37988,
        "meta_element_set_no": 999,
        "meta_rev_at_epoch": 23489,
        "meta_bstar": 0.00064166354,
        "meta_mean_motion_dot": 3.842e-05,
        "meta_mean_motion_ddot": 0,
        "tle_line1": "1 37988U 93036BQP 25353.09901260  .00003842  00000+0  64166-3 0  9993",
        "tle_line2": "2 37988  74.0620  11.7337 0063546  47.3595 313.2907 14.68919670234897"
      },
      "geometry": {
        "type": "Point",
        "coordinates": [
          159.6440900626592,
          50.216991140858454
        ]
      }
    },
    {
      "type": "Feature",
      "properties": {
        "norad_id": 37993,
        "name": "COSMOS 2251 DEB",
        "group": "cosmos-2251-debris",
        "lat": -37.805784652249066,
        "lon": -24.2617433805386,
        "alt_km": 683.8307885126405,
        "timestamp": "2025-12-25T07:41:10.121268+00:00",
        "meta_object_name": "COSMOS 2251 DEB",
        "meta_object_id": "1993-036BQU",
        "meta_epoch": "2025-12-17T04:37:52.855104",
        "meta_mean_motion": 14.59966404,
        "meta_eccentricity": 0.00218755,
        "meta_inclination": 74.021,
        "meta_ra_of_asc_node": 158.4097,
        "meta_arg_of_pericenter": 246.7183,
        "meta_mean_anomaly": 113.168,
        "meta_ephemeris_type": 0,
        "meta_classification_type": "U",
        "meta_norad_cat_id": 37993,
        "meta_element_set_no": 999,
        "meta_rev_at_epoch": 65382,
        "meta_bstar": 0.0010496489,
        "meta_mean_motion_dot": 5.024e-05,
        "meta_mean_motion_ddot": 0,
        "tle_line1": "1 37993U 93036BQU 25351.19297286  .00005024  00000+0  10496-2 0  9994",
        "tle_line2": "2 37993  74.0210 158.4097 0021875 246.7183 113.1680 14.59966404653827"
      },
      "geometry": {
        "type": "Point",
        "coordinates": [
          -24.2617433805386,
          -37.805784652249066
        ]
      }
    }
  ]
}